IRIDIUM 173             
1 43925U 19002D   26061.65016866 -.00000533  00000+0 -19726-3 0  9998
2 43925  86.3955  38.0757 0002078  80.3077 279.8353 14.34215136373687
IRIDIUM 169             
1 43926U 19002E   26061.62325214  .00000326  00000+0  10019-3 0  9990
2 43926  86.4164  69.7450 0001612  73.6858 286.4517 14.38610251374900
IRIDIUM 172             
1 43927U 19002F   26061.43452470  .00000076  00000+0  20188-4 0  9996
2 43927  86.3961  38.1733 0002364  87.0096 273.1370 14.34217773373667
IRIDIUM 175             
1 43928U 19002G   26061.78493219  .00001255  00000+0  19510-3 0  9997
2 43928  86.1547 335.9345 0002194 112.7242 247.4207 14.72254758383584
IRIDIUM 171             
1 43929U 19002H   26061.48526473  .00000091  00000+0  25373-4 0  9996
2 43929  86.3968  38.4467 0002032  91.4563 268.6866 14.34218021373669
IRIDIUM 170             
1 43930U 19002J   26061.45586880  .00001292  00000+0  20098-3 0  9995
2 43930  86.6080  38.1505 0002610  91.6531 268.4985 14.72253949383557
IRIDIUM 167             
1 43931U 19002K   26061.47892195  .00000019  00000+0 -21261-6 0  9990
2 43931  86.3958  38.1761 0001852  89.4639 270.6769 14.34217881373663
IRIDIUM 181             
1 56726U 23068S   26061.61651272  .00000380  00000+0  10698-3 0  9997
2 56726  86.4462 101.3589 0002594  98.9823 261.1671 14.43313307147065
IRIDIUM 177             
1 56727U 23068T   26061.37684037  .00001051  00000+0  13482-3 0  9996
2 56727  86.1991  19.4931 0002399  79.9044 280.2448 14.80233020150564
IRIDIUM 174             
1 56728U 23068U   26061.64741873  .00001342  00000+0  20893-3 0  9996
2 56728  86.6087  38.2072 0002624  83.7503 276.4013 14.72256813150342
IRIDIUM 178             
1 56729U 23068V   26061.56873912  .00000659  00000+0  83282-4 0  9990
2 56729  86.6480  69.9182 0002297 102.5418 257.6061 14.80241345150598
IRIDIUM 179             
1 56730U 23068W   26061.56337579  .00000612  00000+0  77124-4 0  9993
2 56730  86.6717  78.5910 0002256  93.2841 266.8639 14.80237782150592
