[{"OBJECT_NAME":"IRIDIUM 173","OBJECT_ID":"2019-002D","EPOCH":"2026-03-02T15:36:14.572224","MEAN_MOTION":14.34215136,"ECCENTRICITY":0.0002078,"INCLINATION":86.3955,"RA_OF_ASC_NODE":38.0757,"ARG_OF_PERICENTER":80.3077,"MEAN_ANOMALY":279.8353,"EPHEMERIS_TYPE":0,"CLASSIFICATION_TYPE":"U","NORAD_CAT_ID":43925,"ELEMENT_SET_NO":999,"REV_AT_EPOCH":37368,"BSTAR":-0.00019726,"MEAN_MOTION_DOT":-5.33e-6,"MEAN_MOTION_DDOT":0},{"OBJECT_NAME":"IRIDIUM 169","OBJECT_ID":"2019-002E","EPOCH":"2026-03-02T14:57:28.984896","MEAN_MOTION":14.38610251,"ECCENTRICITY":0.0001612,"INCLINATION":86.4164,"RA_OF_ASC_NODE":69.745,"ARG_OF_PERICENTER":73.6858,"MEAN_ANOMALY":286.4517,"EPHEMERIS_TYPE":0,"CLASSIFICATION_TYPE":"U","NORAD_CAT_ID":43926,"ELEMENT_SET_NO":999,"REV_AT_EPOCH":37490,"BSTAR":0.00010019,"MEAN_MOTION_DOT":3.26e-6,"MEAN_MOTION_DDOT":0},{"OBJECT_NAME":"IRIDIUM 172","OBJECT_ID":"2019-002F","EPOCH":"2026-03-02T10:25:42.934080","MEAN_MOTION":14.34217773,"ECCENTRICITY":0.00023644,"INCLINATION":86.3961,"RA_OF_ASC_NODE":38.1733,"ARG_OF_PERICENTER":87.0096,"MEAN_ANOMALY":273.137,"EPHEMERIS_TYPE":0,"CLASSIFICATION_TYPE":"U","NORAD_CAT_ID":43927,"ELEMENT_SET_NO":999,"REV_AT_EPOCH":37366,"BSTAR":2.0187861e-5,"MEAN_MOTION_DOT":7.6e-7,"MEAN_MOTION_DDOT":0},{"OBJECT_NAME":"IRIDIUM 175","OBJECT_ID":"2019-002G","EPOCH":"2026-03-02T18:50:18.141216","MEAN_MOTION":14.72254758,"ECCENTRICITY":0.0002194,"INCLINATION":86.1547,"RA_OF_ASC_NODE":335.9345,"ARG_OF_PERICENTER":112.7242,"MEAN_ANOMALY":247.4207,"EPHEMERIS_TYPE":0,"CLASSIFICATION_TYPE":"U","NORAD_CAT_ID":43928,"ELEMENT_SET_NO":999,"REV_AT_EPOCH":38358,"BSTAR":0.0001951,"MEAN_MOTION_DOT":1.255e-5,"MEAN_MOTION_DDOT":0},{"OBJECT_NAME":"IRIDIUM 171","OBJECT_ID":"2019-002H","EPOCH":"2026-03-02T11:38:46.872672","MEAN_MOTION":14.34218021,"ECCENTRICITY":0.00020321,"INCLINATION":86.3968,"RA_OF_ASC_NODE":38.4467,"ARG_OF_PERICENTER":91.4563,"MEAN_ANOMALY":268.6866,"EPHEMERIS_TYPE":0,"CLASSIFICATION_TYPE":"U","NORAD_CAT_ID":43929,"ELEMENT_SET_NO":999,"REV_AT_EPOCH":37366,"BSTAR":2.5373383e-5,"MEAN_MOTION_DOT":9.1e-7,"MEAN_MOTION_DDOT":0},{"OBJECT_NAME":"IRIDIUM 170","OBJECT_ID":"2019-002J","EPOCH":"2026-03-02T10:56:27.064320","MEAN_MOTION":14.72253949,"ECCENTRICITY":0.000261,"INCLINATION":86.608,"RA_OF_ASC_NODE":38.1505,"ARG_OF_PERICENTER":91.6531,"MEAN_ANOMALY":268.4985,"EPHEMERIS_TYPE":0,"CLASSIFICATION_TYPE":"U","NORAD_CAT_ID":43930,"ELEMENT_SET_NO":999,"REV_AT_EPOCH":38355,"BSTAR":0.00020097621,"MEAN_MOTION_DOT":1.292e-5,"MEAN_MOTION_DDOT":0},{"OBJECT_NAME":"IRIDIUM 167","OBJECT_ID":"2019-002K","EPOCH":"2026-03-02T11:29:38.856480","MEAN_MOTION":14.34217881,"ECCENTRICITY":0.0001852,"INCLINATION":86.3958,"RA_OF_ASC_NODE":38.1761,"ARG_OF_PERICENTER":89.4639,"MEAN_ANOMALY":270.6769,"EPHEMERIS_TYPE":0,"CLASSIFICATION_TYPE":"U","NORAD_CAT_ID":43931,"ELEMENT_SET_NO":999,"REV_AT_EPOCH":37366,"BSTAR":-2.12608e-7,"MEAN_MOTION_DOT":1.9e-7,"MEAN_MOTION_DDOT":0},{"OBJECT_NAME":"IRIDIUM 181","OBJECT_ID":"2023-068S","EPOCH":"2026-03-02T14:47:46.699008","MEAN_MOTION":14.43313307,"ECCENTRICITY":0.0002594,"INCLINATION":86.4462,"RA_OF_ASC_NODE":101.3589,"ARG_OF_PERICENTER":98.9823,"MEAN_ANOMALY":261.1671,"EPHEMERIS_TYPE":0,"CLASSIFICATION_TYPE":"U","NORAD_CAT_ID":56726,"ELEMENT_SET_NO":999,"REV_AT_EPOCH":14706,"BSTAR":0.00010698,"MEAN_MOTION_DOT":3.8e-6,"MEAN_MOTION_DDOT":0},{"OBJECT_NAME":"IRIDIUM 177","OBJECT_ID":"2023-068T","EPOCH":"2026-03-02T09:02:39.007968","MEAN_MOTION":14.8023302,"ECCENTRICITY":0.00023994,"INCLINATION":86.1991,"RA_OF_ASC_NODE":19.4931,"ARG_OF_PERICENTER":79.9044,"MEAN_ANOMALY":280.2448,"EPHEMERIS_TYPE":0,"CLASSIFICATION_TYPE":"U","NORAD_CAT_ID":56727,"ELEMENT_SET_NO":999,"REV_AT_EPOCH":15056,"BSTAR":0.00013481805,"MEAN_MOTION_DOT":1.051e-5,"MEAN_MOTION_DDOT":0},{"OBJECT_NAME":"IRIDIUM 174","OBJECT_ID":"2023-068U","EPOCH":"2026-03-02T15:32:16.978272","MEAN_MOTION":14.72256813,"ECCENTRICITY":0.0002624,"INCLINATION":86.6087,"RA_OF_ASC_NODE":38.2072,"ARG_OF_PERICENTER":83.7503,"MEAN_ANOMALY":276.4013,"EPHEMERIS_TYPE":0,"CLASSIFICATION_TYPE":"U","NORAD_CAT_ID":56728,"ELEMENT_SET_NO":999,"REV_AT_EPOCH":15034,"BSTAR":0.00020893,"MEAN_MOTION_DOT":1.342e-5,"MEAN_MOTION_DDOT":0},{"OBJECT_NAME":"IRIDIUM 178","OBJECT_ID":"2023-068V","EPOCH":"2026-03-02T13:38:59.059968","MEAN_MOTION":14.80241345,"ECCENTRICITY":0.0002297,"INCLINATION":86.648,"RA_OF_ASC_NODE":69.9182,"ARG_OF_PERICENTER":102.5418,"MEAN_ANOMALY":257.6061,"EPHEMERIS_TYPE":0,"CLASSIFICATION_TYPE":"U","NORAD_CAT_ID":56729,"ELEMENT_SET_NO":999,"REV_AT_EPOCH":15059,"BSTAR":8.3282e-5,"MEAN_MOTION_DOT":6.59e-6,"MEAN_MOTION_DDOT":0},{"OBJECT_NAME":"IRIDIUM 179","OBJECT_ID":"2023-068W","EPOCH":"2026-03-02T13:31:15.668256","MEAN_MOTION":14.80237782,"ECCENTRICITY":0.0002256,"INCLINATION":86.6717,"RA_OF_ASC_NODE":78.591,"ARG_OF_PERICENTER":93.2841,"MEAN_ANOMALY":266.8639,"EPHEMERIS_TYPE":0,"CLASSIFICATION_TYPE":"U","NORAD_CAT_ID":56730,"ELEMENT_SET_NO":999,"REV_AT_EPOCH":15059,"BSTAR":7.7124e-5,"MEAN_MOTION_DOT":6.12e-6,"MEAN_MOTION_DDOT":0}]
